NORAD_CAT_ID,OBJECT_NAME,OBJECT_TYPE,EPOCH,MEAN_MOTION,ECCENTRICITY,INCLINATION,RA_OF_ASC_NODE,ARG_OF_PERICENTER,MEAN_ANOMALY,BSTAR,MEAN_MOTION_DOT,MEAN_MOTION_DDOT,TLE_LINE0,TLE_LINE1,TLE_LINE2,SEMIMAJOR_AXIS,PERIOD,APOGEE,PERIGEE,DECAYED
53001.0,STARLINK-4190,PAYLOAD,2022-10-23 14:00:01,15.08870032,0.0001346,53.2169,229.7352,69.2146,134.8935,0.00017627,2.521e-05,0.0,0 STARLINK-4190,1 53001U 22076R   22296.58334491  .00002521  00000-0  17627-3 0  9990,2 53001  53.2169 229.7352 0001346  69.2146 134.8935 15.08870032  1300,6917.7890000000025,95.436,540.585,538.722,0.0
53001.0,STARLINK-4190,PAYLOAD,2022-10-23 22:00:00,15.08867253,0.0001254,53.2171,228.2391,66.7852,148.954,-0.0024024,-0.00038347,0.0,0 STARLINK-4190,1 53001U 22076R   22296.91667824 -.00038347  00000-0 -24024-2 0  9991,2 53001  53.2171 228.2391 0001254  66.7852 148.9540 15.08867253  1303,6917.797,95.436,540.53,538.795,0.0
53001.0,STARLINK-4190,PAYLOAD,2022-10-24 14:00:01,15.08835327,0.0001339,53.2175,225.2459,65.013,173.9419,0.0013564,0.00021362,0.0,0 STARLINK-4190,1 53001U 22076R   22297.58334491  .00021362  00000-0  13564-2 0  9990,2 53001  53.2175 225.2459 0001339  65.0130 173.9419 15.08835327  1304,6917.895,95.438,540.686,538.8330000000002,0.0
53001.0,STARLINK-4190,PAYLOAD,2022-10-24 16:00:00,15.08826638,0.0001341,53.2173,224.8716,67.8771,263.981,0.0027015,0.00042953,0.0,0 STARLINK-4190,1 53001U 22076R   22297.66667824  .00042953  00000-0  27015-2 0  9993,2 53001  53.2173 224.8716 0001341  67.8771 263.9810 15.08826638 17326,6917.920999999999,95.438,540.714,538.859,0.0
53001.0,STARLINK-4190,PAYLOAD,2022-10-24 22:00:00,15.08866647,0.0001475,53.2176,223.7501,67.4004,183.1478,-0.00326,-0.00051835,0.0,0 STARLINK-4190,1 53001U 22076R   22297.91667824 -.00051835  00000-0 -32600-2 0  9998,2 53001  53.2176 223.7501 0001475  67.4004 183.1478 15.08866647  1300,6917.799,95.436,540.684,538.644,0.0
53001.0,STARLINK-4190,PAYLOAD,2022-10-25 06:00:00,15.08826745,0.0001575,53.2177,222.2551,59.8744,202.2819,0.00046883,7.179e-05,0.0,0 STARLINK-4190,1 53001U 22076R   22298.25001157  .00007179  00000-0  46883-3 0  9996,2 53001  53.2177 222.2551 0001575  59.8744 202.2819 15.08826745 17413,6917.920999999999,95.438,540.875,538.696,0.0
53001.0,STARLINK-4190,PAYLOAD,2022-10-25 14:00:01,15.08803174,0.0001479,53.218,220.757,66.2543,207.4917,-0.0003736,-6.223e-05,0.0,0 STARLINK-4190,1 53001U 22076R   22298.58334491 -.00006223  00000-0 -37360-3 0  9993,2 53001  53.2180 220.7570 0001479  66.2543 207.4917 15.08803174  1301,6917.993,95.44,540.881,538.835,0.0
53001.0,STARLINK-4190,PAYLOAD,2022-10-25 22:00:01,15.08814936,0.0001598,53.2181,219.2613,67.681,217.6711,-0.00097783,-0.00015806,0.0,0 STARLINK-4190,1 53001U 22076R   22298.91668981 -.00015806  00000-0 -97783-3 0  9996,2 53001  53.2181 219.2613 0001598  67.6810 217.6711 15.08814936 17510,6917.956999999999,95.439,540.927,538.717,0.0
53001.0,STARLINK-4190,PAYLOAD,2022-10-26 14:00:01,15.08803903,0.0001554,53.2181,216.2684,68.7893,239.6305,0.0025428,0.00040373,0.0,0 STARLINK-4190,1 53001U 22076R   22299.58334491  .00040373  00000-0  25428-2 0  9997,2 53001  53.2181 216.2684 0001554  68.7893 239.6305 15.08803903  1305,6917.991,95.44,540.931,538.781,0.0
53001.0,STARLINK-4190,PAYLOAD,2022-10-26 16:00:01,15.08799892,0.000154,53.2179,215.894,70.8028,330.5738,0.0036853,0.00058788,0.0,0 STARLINK-4190,1 53001U 22076R   22299.66668981  .00058788  00000-0  36853-2 0  9993,2 53001  53.2179 215.8940 0001540  70.8028 330.5738 15.08799892 17625,6918.003000000002,95.44,540.933,538.803,0.0
53001.0,STARLINK-4190,PAYLOAD,2022-10-26 22:00:00,15.08845955,0.0001621,53.2181,214.7728,68.551,251.4312,-0.0010655999999999,-0.0001720999999999,0.0,0 STARLINK-4190,1 53001U 22076R   22299.91667824 -.00017210  00000-0 -10656-2 0  9996,2 53001  53.2181 214.7728 0001621  68.5510 251.4312 15.08845955  1309,6917.861999999999,95.437,540.849,538.606,0.0
53001.0,STARLINK-4190,PAYLOAD,2022-10-27 08:00:01,15.08856029,0.0001665999999999,53.2175,212.9031,62.6352,1.8435,0.00024877,3.675e-05,0.0,0 STARLINK-4190,1 53001U 22076R   22300.33334491  .00003675  00000-0  24877-3 0  9995,2 53001  53.2175 212.9031 0001666  62.6352   1.8435 15.08856029 17727,6917.831,95.437,540.849,538.544,0.0
53001.0,STARLINK-4190,PAYLOAD,2022-10-27 14:00:01,15.08837516,0.0001545,53.2177,211.7796,70.5138,272.7465,0.0030449,0.00048502,0.0,0 STARLINK-4190,1 53001U 22076R   22300.58335648  .00048502  00000-0  30449-2 0  9996,2 53001  53.2177 211.7796 0001545  70.5138 272.7465 15.08837516  1309,6917.888000000001,95.438,540.822,538.684,0.0
53001.0,STARLINK-4190,PAYLOAD,2022-10-27 22:00:00,15.08889265,0.0001545,53.2177,210.2842,68.8847,285.9224,-0.0037765,-0.00059971,0.0,0 STARLINK-4190,1 53001U 22076R   22300.91667824 -.00059971  00000-0 -37765-2 0  9999,2 53001  53.2177 210.2842 0001545  68.8847 285.9224 15.08889265  1309,6917.73,95.434,540.664,538.526,0.0
53001.0,STARLINK-4190,PAYLOAD,2022-10-28 08:00:01,15.0887163,0.0001484,53.2169,208.414,62.3946,37.0103,-0.002382,-0.0003803,0.0,0 STARLINK-4190,1 53001U 22076R   22301.33335648 -.00038030  00000-0 -23820-2 0  9992,2 53001  53.2169 208.4140 0001484  62.3946  37.0103 15.08871630 17880,6917.784000000002,95.436,540.675,538.622,0.0
53001.0,STARLINK-4190,PAYLOAD,2022-10-28 14:00:01,15.08821166,0.000135,53.2169,207.2906,70.2875,307.8381,0.0033964,0.00054153,0.0,0 STARLINK-4190,1 53001U 22076R   22301.58335648  .00054153  00000-0  33964-2 0  9991,2 53001  53.2169 207.2906 0001350  70.2875 307.8381 15.08821166  1303,6917.938,95.439,540.737,538.869,0.0
53001.0,STARLINK-4190,PAYLOAD,2022-10-28 22:00:01,15.08872049,0.0001473,53.2168,205.7954,68.1079,321.6118,-0.0036835,-0.00058486,0.0,0 STARLINK-4190,1 53001U 22076R   22301.91668981 -.00058486  00000-0 -36835-2 0  9992,2 53001  53.2168 205.7954 0001473  68.1079 321.6118 15.08872049  1304,6917.781999999997,95.436,540.6659999999998,538.628,0.0
53001.0,STARLINK-4190,PAYLOAD,2022-10-29 00:00:02,15.0885703,0.0001521999999999,53.2166,205.4217,66.0926,56.5355,-0.0029271,-0.00046593,0.0,0 STARLINK-4190,1 53001U 22076R   22302.00002315 -.00046593  00000-0 -29271-2 0  9998,2 53001  53.2166 205.4217 0001522  66.0926  56.5355 15.08857030 17985,6917.828,95.436,540.746,538.64,0.0
53001.0,STARLINK-4190,PAYLOAD,2022-10-29 12:00:00,15.08832717,0.0001376999999999,53.2163,203.176,70.3021,249.6739,0.0020245999999999,0.00032074,0.0,0 STARLINK-4190,1 53001U 22076R   22302.50001157  .00032074  00000-0  20246-2 0  9996,2 53001  53.2163 203.1760 0001377  70.3021 249.6739 15.08832717  1307,6917.903,95.438,540.72,538.815,0.0
53001.0,STARLINK-4190,PAYLOAD,2022-10-29 22:00:01,15.08890992,0.0001440999999999,53.216,201.3064,67.7305,356.8098,-0.0038396999999999,-0.00060964,0.0,0 STARLINK-4190,1 53001U 22076R   22302.91668981 -.00060964  00000-0 -38397-2 0  9992,2 53001  53.2160 201.3064 0001441  67.7305 356.8098 15.08890992  1306,6917.725,95.434,540.586,538.5930000000002,0.0
53001.0,STARLINK-4190,PAYLOAD,2022-10-30 00:00:00,15.08877665,0.0001483,53.2159,200.9328,65.8219,91.5684,-0.0032054,-0.00050993,0.0,0 STARLINK-4190,1 53001U 22076R   22303.00001157 -.00050993  00000-0 -32054-2 0  9994,2 53001  53.2159 200.9328 0001483  65.8219  91.5684 15.08877665 18136,6917.765,95.435,540.656,538.604,0.0
53001.0,STARLINK-4190,PAYLOAD,2022-10-30 14:00:01,15.08812204,0.0001136,53.2156,198.3124,66.5237,21.1604,0.0035985,0.00057405,0.0,0 STARLINK-4190,1 53001U 22076R   22303.58334491  .00057405  00000-0  35985-2 0  9996,2 53001  53.2156 198.3124 0001136  66.5237  21.1604 15.08812204  1300,6917.965,95.439,540.616,539.044,0.0
53001.0,STARLINK-4190,PAYLOAD,2022-10-30 22:00:01,15.08861475,0.0001222,53.2157,196.8173,61.3642,37.9703,-0.0035143,-0.00055817,0.0,0 STARLINK-4190,1 53001U 22076R   22303.91668981 -.00055817  00000-0 -35143-2 0  9990,2 53001  53.2157 196.8173 0001222  61.3642  37.9703 15.08861475  1306,6917.815,95.436,540.525,538.8340000000002,0.0
53001.0,STARLINK-4190,PAYLOAD,2022-10-31 14:00:01,15.08799036,0.0001189999999999,53.2158,193.8232,64.7189,57.7375,0.003424,0.00054566,0.0,0 STARLINK-4190,1 53001U 22076R   22304.58334491  .00054566  00000-0  34240-2 0  9995,2 53001  53.2158 193.8232 0001190  64.7189  57.7375 15.08799036  1305,6918.005999999999,95.44,540.694,539.047,0.0
53001.0,STARLINK-4190,PAYLOAD,2022-10-31 22:00:01,15.08842954,0.00013,53.2159,192.3281,59.5919,74.4984,-0.0025586,-0.00040781,0.0,0 STARLINK-4190,1 53001U 22076R   22304.91668981 -.00040781  00000-0 -25586-2 0  9995,2 53001  53.2159 192.3281 0001300  59.5919  74.4984 15.08842954  1300,6917.871,95.437,540.636,538.837,0.0
53001.0,STARLINK-4190,PAYLOAD,2022-11-01 00:00:02,15.088174,0.0001346,53.216,191.9544,56.7901,170.2037,0.0004152,6.322e-05,0.0,0 STARLINK-4190,1 53001U 22076R   22305.00002315  .00006322  00000-0  41520-3 0  9997,2 53001  53.2160 191.9544 0001346  56.7901 170.2037 15.08817400 18433,6917.949000000001,95.439,540.746,538.883,0.0
53001.0,STARLINK-4190,PAYLOAD,2022-11-01 14:00:01,15.08791925,0.0001302,53.2164,189.334,64.584,92.6078,0.0034811,0.00055477,0.0,0 STARLINK-4190,1 53001U 22076R   22305.58334491  .00055477  00000-0  34811-2 0  9992,2 53001  53.2164 189.3340 0001302  64.5840  92.6078 15.08791925  1306,6918.026999999999,95.441,540.793,538.992,0.0
53001.0,STARLINK-4190,PAYLOAD,2022-11-01 22:00:00,15.08836018,0.0001489,53.2166,187.8392,60.2496,108.5024,-0.00079256,-0.00012878,0.0,0 STARLINK-4190,1 53001U 22076R   22305.91667824 -.00012878  00000-0 -79256-3 0  9991,2 53001  53.2166 187.8392 0001489  60.2496 108.5024 15.08836018  1305,6917.893,95.438,540.788,538.727,0.0
53001.0,STARLINK-4190,PAYLOAD,2022-11-02 06:00:00,15.08850035,0.0001584,53.2167,186.3429,59.0797,121.2538,-0.0042483,-0.00067287,0.0,0 STARLINK-4190,1 53001U 22076R   22306.25001157 -.00067287  00000-0 -42483-2 0  9995,2 53001  53.2167 186.3429 0001584  59.0797 121.2538 15.08850035 18627,6917.85,95.437,540.811,538.619,0.0
